<?xml version="1.0" encoding="UTF-8"?>
<ndm xmlns:xsi="http://www.w3.org/2001/XMLSchema-instance" xsi:noNamespaceSchemaLocation="https://sanaregistry.org/r/ndmxml_unqualified/ndmxml-2.0.0-master-2.0.xsd">
<omm id="CCSDS_OMM_VERS" version="2.0">
<header><CREATION_DATE/><ORIGINATOR/></header><body><segment><metadata><OBJECT_NAME>IRIDIUM 39</OBJECT_NAME><OBJECT_ID>1997-069D</OBJECT_ID><CENTER_NAME>EARTH</CENTER_NAME><REF_FRAME>TEME</REF_FRAME><TIME_SYSTEM>UTC</TIME_SYSTEM><MEAN_ELEMENT_THEORY>SGP4</MEAN_ELEMENT_THEORY></metadata><data><meanElements><EPOCH>2026-01-03T06:38:31.644960</EPOCH><MEAN_MOTION>14.49546963</MEAN_MOTION><ECCENTRICITY>.00176035</ECCENTRICITY><INCLINATION>86.3932</INCLINATION><RA_OF_ASC_NODE>125.3962</RA_OF_ASC_NODE><ARG_OF_PERICENTER>4.6907</ARG_OF_PERICENTER><MEAN_ANOMALY>355.4459</MEAN_ANOMALY></meanElements><tleParameters><EPHEMERIS_TYPE>0</EPHEMERIS_TYPE><CLASSIFICATION_TYPE>U</CLASSIFICATION_TYPE><NORAD_CAT_ID>25042</NORAD_CAT_ID><ELEMENT_SET_NO>999</ELEMENT_SET_NO><REV_AT_EPOCH>47794</REV_AT_EPOCH><BSTAR>.38132147E-3</BSTAR><MEAN_MOTION_DOT>.1485E-4</MEAN_MOTION_DOT><MEAN_MOTION_DDOT>0</MEAN_MOTION_DDOT></tleParameters></data></segment></body></omm>
<omm id="CCSDS_OMM_VERS" version="2.0">
<header><CREATION_DATE/><ORIGINATOR/></header><body><segment><metadata><OBJECT_NAME>IRIDIUM 38</OBJECT_NAME><OBJECT_ID>1997-069E</OBJECT_ID><CENTER_NAME>EARTH</CENTER_NAME><REF_FRAME>TEME</REF_FRAME><TIME_SYSTEM>UTC</TIME_SYSTEM><MEAN_ELEMENT_THEORY>SGP4</MEAN_ELEMENT_THEORY></metadata><data><meanElements><EPOCH>2026-01-03T03:02:44.369088</EPOCH><MEAN_MOTION>14.38340961</MEAN_MOTION><ECCENTRICITY>.00032173</ECCENTRICITY><INCLINATION>86.3990</INCLINATION><RA_OF_ASC_NODE>149.1155</RA_OF_ASC_NODE><ARG_OF_PERICENTER>127.4675</ARG_OF_PERICENTER><MEAN_ANOMALY>232.6817</MEAN_ANOMALY></meanElements><tleParameters><EPHEMERIS_TYPE>0</EPHEMERIS_TYPE><CLASSIFICATION_TYPE>U</CLASSIFICATION_TYPE><NORAD_CAT_ID>25043</NORAD_CAT_ID><ELEMENT_SET_NO>999</ELEMENT_SET_NO><REV_AT_EPOCH>47469</REV_AT_EPOCH><BSTAR>.31493287E-3</BSTAR><MEAN_MOTION_DOT>.978E-5</MEAN_MOTION_DOT><MEAN_MOTION_DDOT>0</MEAN_MOTION_DDOT></tleParameters></data></segment></body></omm>
<omm id="CCSDS_OMM_VERS" version="2.0">
<header><CREATION_DATE/><ORIGINATOR/></header><body><segment><metadata><OBJECT_NAME>IRIDIUM 42</OBJECT_NAME><OBJECT_ID>1997-077A</OBJECT_ID><CENTER_NAME>EARTH</CENTER_NAME><REF_FRAME>TEME</REF_FRAME><TIME_SYSTEM>UTC</TIME_SYSTEM><MEAN_ELEMENT_THEORY>SGP4</MEAN_ELEMENT_THEORY></metadata><data><meanElements><EPOCH>2026-01-02T23:04:45.271776</EPOCH><MEAN_MOTION>14.36556359</MEAN_MOTION><ECCENTRICITY>.0002141</ECCENTRICITY><INCLINATION>86.3994</INCLINATION><RA_OF_ASC_NODE>155.5995</RA_OF_ASC_NODE><ARG_OF_PERICENTER>114.0141</ARG_OF_PERICENTER><MEAN_ANOMALY>246.1280</MEAN_ANOMALY></meanElements><tleParameters><EPHEMERIS_TYPE>0</EPHEMERIS_TYPE><CLASSIFICATION_TYPE>U</CLASSIFICATION_TYPE><NORAD_CAT_ID>25077</NORAD_CAT_ID><ELEMENT_SET_NO>999</ELEMENT_SET_NO><REV_AT_EPOCH>46987</REV_AT_EPOCH><BSTAR>.29788E-3</BSTAR><MEAN_MOTION_DOT>.894E-5</MEAN_MOTION_DOT><MEAN_MOTION_DDOT>0</MEAN_MOTION_DDOT></tleParameters></data></segment></body></omm>
<omm id="CCSDS_OMM_VERS" version="2.0">
<header><CREATION_DATE/><ORIGINATOR/></header><body><segment><metadata><OBJECT_NAME>IRIDIUM 44</OBJECT_NAME><OBJECT_ID>1997-077B</OBJECT_ID><CENTER_NAME>EARTH</CENTER_NAME><REF_FRAME>TEME</REF_FRAME><TIME_SYSTEM>UTC</TIME_SYSTEM><MEAN_ELEMENT_THEORY>SGP4</MEAN_ELEMENT_THEORY></metadata><data><meanElements><EPOCH>2026-01-03T06:42:28.605600</EPOCH><MEAN_MOTION>14.40455474</MEAN_MOTION><ECCENTRICITY>.00039106</ECCENTRICITY><INCLINATION>86.3987</INCLINATION><RA_OF_ASC_NODE>136.8669</RA_OF_ASC_NODE><ARG_OF_PERICENTER>91.9317</ARG_OF_PERICENTER><MEAN_ANOMALY>268.2330</MEAN_ANOMALY></meanElements><tleParameters><EPHEMERIS_TYPE>0</EPHEMERIS_TYPE><CLASSIFICATION_TYPE>U</CLASSIFICATION_TYPE><NORAD_CAT_ID>25078</NORAD_CAT_ID><ELEMENT_SET_NO>999</ELEMENT_SET_NO><REV_AT_EPOCH>47250</REV_AT_EPOCH><BSTAR>.26629998E-3</BSTAR><MEAN_MOTION_DOT>.866E-5</MEAN_MOTION_DOT><MEAN_MOTION_DDOT>0</MEAN_MOTION_DDOT></tleParameters></data></segment></body></omm>
<omm id="CCSDS_OMM_VERS" version="2.0">
<header><CREATION_DATE/><ORIGINATOR/></header><body><segment><metadata><OBJECT_NAME>IRIDIUM 45</OBJECT_NAME><OBJECT_ID>1997-082A</OBJECT_ID><CENTER_NAME>EARTH</CENTER_NAME><REF_FRAME>TEME</REF_FRAME><TIME_SYSTEM>UTC</TIME_SYSTEM><MEAN_ELEMENT_THEORY>SGP4</MEAN_ELEMENT_THEORY></metadata><data><meanElements><EPOCH>2026-01-03T07:06:03.803904</EPOCH><MEAN_MOTION>15.32924246</MEAN_MOTION><ECCENTRICITY>.00920033</ECCENTRICITY><INCLINATION>86.3551</INCLINATION><RA_OF_ASC_NODE>310.0434</RA_OF_ASC_NODE><ARG_OF_PERICENTER>298.1472</ARG_OF_PERICENTER><MEAN_ANOMALY>61.0504</MEAN_ANOMALY></meanElements><tleParameters><EPHEMERIS_TYPE>0</EPHEMERIS_TYPE><CLASSIFICATION_TYPE>U</CLASSIFICATION_TYPE><NORAD_CAT_ID>25104</NORAD_CAT_ID><ELEMENT_SET_NO>999</ELEMENT_SET_NO><REV_AT_EPOCH>48257</REV_AT_EPOCH><BSTAR>.1380216E-2</BSTAR><MEAN_MOTION_DOT>.50492E-3</MEAN_MOTION_DOT><MEAN_MOTION_DDOT>0</MEAN_MOTION_DDOT></tleParameters></data></segment></body></omm>
<omm id="CCSDS_OMM_VERS" version="2.0">
<header><CREATION_DATE/><ORIGINATOR/></header><body><segment><metadata><OBJECT_NAME>IRIDIUM 24</OBJECT_NAME><OBJECT_ID>1997-082B</OBJECT_ID><CENTER_NAME>EARTH</CENTER_NAME><REF_FRAME>TEME</REF_FRAME><TIME_SYSTEM>UTC</TIME_SYSTEM><MEAN_ELEMENT_THEORY>SGP4</MEAN_ELEMENT_THEORY></metadata><data><meanElements><EPOCH>2026-01-03T01:29:09.678048</EPOCH><MEAN_MOTION>14.42354569</MEAN_MOTION><ECCENTRICITY>.00128674</ECCENTRICITY><INCLINATION>86.3911</INCLINATION><RA_OF_ASC_NODE>355.5031</RA_OF_ASC_NODE><ARG_OF_PERICENTER>130.2258</ARG_OF_PERICENTER><MEAN_ANOMALY>230.0070</MEAN_ANOMALY></meanElements><tleParameters><EPHEMERIS_TYPE>0</EPHEMERIS_TYPE><CLASSIFICATION_TYPE>U</CLASSIFICATION_TYPE><NORAD_CAT_ID>25105</NORAD_CAT_ID><ELEMENT_SET_NO>999</ELEMENT_SET_NO><REV_AT_EPOCH>47202</REV_AT_EPOCH><BSTAR>.30130626E-3</BSTAR><MEAN_MOTION_DOT>.1016E-4</MEAN_MOTION_DOT><MEAN_MOTION_DDOT>0</MEAN_MOTION_DDOT></tleParameters></data></segment></body></omm>
<omm id="CCSDS_OMM_VERS" version="2.0">
<header><CREATION_DATE/><ORIGINATOR/></header><body><segment><metadata><OBJECT_NAME>IRIDIUM 51</OBJECT_NAME><OBJECT_ID>1998-018A</OBJECT_ID><CENTER_NAME>EARTH</CENTER_NAME><REF_FRAME>TEME</REF_FRAME><TIME_SYSTEM>UTC</TIME_SYSTEM><MEAN_ELEMENT_THEORY>SGP4</MEAN_ELEMENT_THEORY></metadata><data><meanElements><EPOCH>2026-01-03T06:24:45.295488</EPOCH><MEAN_MOTION>15.67184837</MEAN_MOTION><ECCENTRICITY>.00468416</ECCENTRICITY><INCLINATION>86.3728</INCLINATION><RA_OF_ASC_NODE>315.1518</RA_OF_ASC_NODE><ARG_OF_PERICENTER>181.2069</ARG_OF_PERICENTER><MEAN_ANOMALY>178.9095</MEAN_ANOMALY></meanElements><tleParameters><EPHEMERIS_TYPE>0</EPHEMERIS_TYPE><CLASSIFICATION_TYPE>U</CLASSIFICATION_TYPE><NORAD_CAT_ID>25262</NORAD_CAT_ID><ELEMENT_SET_NO>999</ELEMENT_SET_NO><REV_AT_EPOCH>47801</REV_AT_EPOCH><BSTAR>.16046125E-2</BSTAR><MEAN_MOTION_DOT>.185514E-2</MEAN_MOTION_DOT><MEAN_MOTION_DDOT>0</MEAN_MOTION_DDOT></tleParameters></data></segment></body></omm>
<omm id="CCSDS_OMM_VERS" version="2.0">
<header><CREATION_DATE/><ORIGINATOR/></header><body><segment><metadata><OBJECT_NAME>IRIDIUM 57</OBJECT_NAME><OBJECT_ID>1998-019B</OBJECT_ID><CENTER_NAME>EARTH</CENTER_NAME><REF_FRAME>TEME</REF_FRAME><TIME_SYSTEM>UTC</TIME_SYSTEM><MEAN_ELEMENT_THEORY>SGP4</MEAN_ELEMENT_THEORY></metadata><data><meanElements><EPOCH>2026-01-03T05:35:56.087520</EPOCH><MEAN_MOTION>14.36070614</MEAN_MOTION><ECCENTRICITY>.00022815</ECCENTRICITY><INCLINATION>86.3936</INCLINATION><RA_OF_ASC_NODE>61.3728</RA_OF_ASC_NODE><ARG_OF_PERICENTER>96.3047</ARG_OF_PERICENTER><MEAN_ANOMALY>263.8410</MEAN_ANOMALY></meanElements><tleParameters><EPHEMERIS_TYPE>0</EPHEMERIS_TYPE><CLASSIFICATION_TYPE>U</CLASSIFICATION_TYPE><NORAD_CAT_ID>25273</NORAD_CAT_ID><ELEMENT_SET_NO>999</ELEMENT_SET_NO><REV_AT_EPOCH>45349</REV_AT_EPOCH><BSTAR>.21603614E-3</BSTAR><MEAN_MOTION_DOT>.648E-5</MEAN_MOTION_DOT><MEAN_MOTION_DDOT>0</MEAN_MOTION_DDOT></tleParameters></data></segment></body></omm>

</ndm>
