IRIDIUM 39              
1 25042U 97069D   26003.27675515  .00001485  00000+0  38132-3 0  9990
2 25042  86.3932 125.3962 0017603   4.6907 355.4459 14.49546963477944
IRIDIUM 38              
1 25043U 97069E   26003.12690242  .00000978  00000+0  31493-3 0  9998
2 25043  86.3990 149.1155 0003217 127.4675 232.6817 14.38340961474690
IRIDIUM 42              
1 25077U 97077A   26002.96163509  .00000894  00000+0  29788-3 0  9997
2 25077  86.3994 155.5995 0002141 114.0141 246.1280 14.36556359469875
IRIDIUM 44              
1 25078U 97077B   26003.27949775  .00000866  00000+0  26630-3 0  9992
2 25078  86.3987 136.8669 0003910  91.9317 268.2330 14.40455474472507
IRIDIUM 45              
1 25104U 97082A   26003.29587736  .00050492  00000+0  13802-2 0  9991
2 25104  86.3551 310.0434 0092003 298.1472  61.0504 15.32924246482574
IRIDIUM 24              
1 25105U 97082B   26003.06191757  .00001016  00000+0  30131-3 0  9994
2 25105  86.3911 355.5031 0012867 130.2258 230.0070 14.42354569472020
IRIDIUM 51              
1 25262U 98018A   26003.26719092  .00185514  00000+0  16046-2 0  9992
2 25262  86.3728 315.1518 0046841 181.2069 178.9095 15.67184837478016
IRIDIUM 57              
1 25273U 98019B   26003.23328805  .00000648  00000+0  21604-3 0  9991
2 25273  86.3936  61.3728 0002281  96.3047 263.8410 14.36070614453496
